COMMENT,ORIGINATOR,NORAD_CAT_ID,OBJECT_NAME,OBJECT_TYPE,CLASSIFICATION_TYPE,INTLDES,EPOCH,EPOCH_MICROSECONDS,MEAN_MOTION,ECCENTRICITY,INCLINATION,RA_OF_ASC_NODE,ARG_OF_PERICENTER,MEAN_ANOMALY,EPHEMERIS_TYPE,ELEMENT_SET_NO,REV_AT_EPOCH,BSTAR,MEAN_MOTION_DOT,MEAN_MOTION_DDOT,FILE,TLE_LINE0,TLE_LINE1,TLE_LINE2,OBJECT_ID,OBJECT_NUMBER,SEMIMAJOR_AXIS,PERIOD,APOGEE,PERIGEE,DECAYED
"GENERATED VIA SPACETRACK.ORG API","18 SPCS","48896","SPACEBEE-105","PAYLOAD","U","21059T","2022-07-21 08:18:44","222688","15.16312412","0.0007928","97.5582","331.7032","350.8029","9.3058","0","999","5906","0.00044603","0.00008585","0","3518988","0 SPACEBEE-105","1 48896U 21059T   22202.34634517  .00008585  00000-0  44603-3 0  9999","2 48896  97.5582 331.7032 0007928 350.8029   9.3058 15.16312412 59066","2021-059T","48896","6895.134","94.967","522.466","511.533","0"
"GENERATED VIA SPACETRACK.ORG API","18 SPCS","48896","SPACEBEE-105","PAYLOAD","U","21059T","2022-07-21 14:38:50","774496","15.16316313","0.0007902","97.5581","331.9661","349.7709","10.3361","0","999","5910","0.00043421","0.00008356","0","3519265","0 SPACEBEE-105","1 48896U 21059T   22202.61030989  .00008356  00000-0  43421-3 0  9995","2 48896  97.5581 331.9661 0007902 349.7709  10.3361 15.16316313 59107","2021-059T","48896","6895.122","94.967","522.436","511.539","0"
"GENERATED VIA SPACETRACK.ORG API","18 SPCS","48896","SPACEBEE-105","PAYLOAD","U","21059T","2022-07-22 01:44:02","25024","15.1632729","0.0007872","97.558","332.4262","347.9061","12.1981","0","999","5917","0.00052931","0.00010207","0","3519348","0 SPACEBEE-105","1 48896U 21059T   22203.07224566  .00010207  00000-0  52931-3 0  9996","2 48896  97.5580 332.4262 0007872 347.9061  12.1981 15.16327290 59177","2021-059T","48896","6895.089","94.966","522.382","511.526","0"
"GENERATED VIA SPACETRACK.ORG API","18 SPCS","48896","SPACEBEE-105","PAYLOAD","U","21059T","2022-07-22 01:44:02","25024","15.1632729","0.0007872","97.558","332.4262","347.9061","12.1981","0","999","5917","0.00052931","0.00010207","0","3519758","0 SPACEBEE-105","1 48896U 21059T   22203.07224566  .00010207  00000-0  52931-3 0  9996","2 48896  97.5580 332.4262 0007872 347.9061  12.1981 15.16327290 59177","2021-059T","48896","6895.089","94.966","522.382","511.526","0"
"GENERATED VIA SPACETRACK.ORG API","18 SPCS","48896","SPACEBEE-105","PAYLOAD","U","21059T","2022-07-23 07:49:31","495008","15.16348557","0.0007823","97.5578","333.6748","342.5012","17.595","0","999","5936","0.00045873","0.00008841","0","3520263","0 SPACEBEE-105","1 48896U 21059T   22204.32605897  .00008841  00000-0  45873-3 0  9993","2 48896  97.5578 333.6748 0007823 342.5012  17.5950 15.16348557 59364","2021-059T","48896","6895.024","94.965","522.283","511.496","0"
"GENERATED VIA SPACETRACK.ORG API","18 SPCS","48896","SPACEBEE-105","PAYLOAD","U","21059T","2022-07-23 07:49:31","495008","15.16348557","0.0007823","97.5578","333.6748","342.5012","17.595","0","999","5936","0.00045873","0.00008841","0","3520423","0 SPACEBEE-105","1 48896U 21059T   22204.32605897  .00008841  00000-0  45873-3 0  9993","2 48896  97.5578 333.6748 0007823 342.5012  17.5950 15.16348557 59364","2021-059T","48896","6895.024","94.965","522.283","511.496","0"
"GENERATED VIA SPACETRACK.ORG API","18 SPCS","48896","SPACEBEE-105","PAYLOAD","U","21059T","2022-07-23 20:29:43","420992","15.16357675","0.0007787","97.5579","334.2006","340.527","19.5664","0","999","5944","0.00043874","0.00008454","0","3520602","0 SPACEBEE-105","1 48896U 21059T   22204.85397478  .00008454  00000-0  43874-3 0  9993","2 48896  97.5579 334.2006 0007787 340.5270  19.5664 15.16357675 59446","2021-059T","48896","6894.997","94.964","522.231","511.493","0"
"GENERATED VIA SPACETRACK.ORG API","18 SPCS","48896","SPACEBEE-105","PAYLOAD","U","21059T","2022-07-24 07:34:53","632128","15.16365757","0.0007769","97.5581","334.6607","338.8329","21.2581","0","999","5951","0.00043976","0.00008476","0","3520987","0 SPACEBEE-105","1 48896U 21059T   22205.31589852  .00008476  00000-0  43976-3 0  9991","2 48896  97.5581 334.6607 0007769 338.8329  21.2581 15.16365757 59511","2021-059T","48896","6894.972","94.964","522.194","511.481","0"
"GENERATED VIA SPACETRACK.ORG API","18 SPCS","48896","SPACEBEE-105","PAYLOAD","U","21059T","2022-07-24 13:54:59","395968","15.16369216","0.0007743","97.5582","334.9236","337.777","22.3126","0","999","5955","0.00041351","0.00007966","0","3521035","0 SPACEBEE-105","1 48896U 21059T   22205.57985412  .00007966  00000-0  41351-3 0  9999","2 48896  97.5582 334.9236 0007743 337.7770  22.3126 15.16369216 59558","2021-059T","48896","6894.962","94.964","522.166","511.488","0"
"GENERATED VIA SPACETRACK.ORG API","18 SPCS","48896","SPACEBEE-105","PAYLOAD","U","21059T","2022-07-24 20:15:05","95008","15.16372943","0.0007724","97.5583","335.1865","336.7921","23.2962","0","999","5959","0.00038463","0.00007405","0","3521124","0 SPACEBEE-105","1 48896U 21059T   22205.84380897  .00007405  00000-0  38463-3 0  9993","2 48896  97.5583 335.1865 0007724 336.7921  23.2962 15.16372943 59599","2021-059T","48896","6894.951","94.963","522.141","511.490","0"
"GENERATED VIA SPACETRACK.ORG API","18 SPCS","48896","SPACEBEE-105","PAYLOAD","U","21059T","2022-07-25 07:20:14","936352","15.16380358","0.0007696","97.5584","335.6466","335.1292","24.9569","0","999","5966","0.00039625","0.00007633","0","3521435","0 SPACEBEE-105","1 48896U 21059T   22206.30572843  .00007633  00000-0  39625-3 0  9993","2 48896  97.5584 335.6466 0007696 335.1292  24.9569 15.16380358 59662","2021-059T","48896","6894.928","94.963","522.099","511.487","0"
"GENERATED VIA SPACETRACK.ORG API","18 SPCS","48896","SPACEBEE-105","PAYLOAD","U","21059T","2022-07-25 15:15:21","881952","15.16384056","0.000765","97.5586","335.9752","333.9068","26.1778","0","999","5971","0.00036931","0.00007109","0","3521535","0 SPACEBEE-105","1 48896U 21059T   22206.63566993  .00007109  00000-0  36931-3 0  9993","2 48896  97.5586 335.9752 0007650 333.9068  26.1778 15.16384056 59713","2021-059T","48896","6894.917","94.963","522.056","511.507","0"
"GENERATED VIA SPACETRACK.ORG API","18 SPCS","48896","SPACEBEE-105","PAYLOAD","U","21059T","2022-07-25 15:15:21","881952","15.16384056","0.000765","97.5586","335.9752","333.9068","26.1778","0","999","5971","0.00036931","0.00007109","0","3521711","0 SPACEBEE-105","1 48896U 21059T   22206.63566993  .00007109  00000-0  36931-3 0  9993","2 48896  97.5586 335.9752 0007650 333.9068  26.1778 15.16384056 59713","2021-059T","48896","6894.917","94.963","522.056","511.507","0"
"GENERATED VIA SPACETRACK.ORG API","18 SPCS","48896","SPACEBEE-105","PAYLOAD","U","21059T","2022-07-26 07:05:35","471616","15.1639423","0.0007596","97.5589","336.6325","331.6892","28.3927","0","999","5981","0.00038821","0.00007479","0","3522226","0 SPACEBEE-105","1 48896U 21059T   22207.29554944  .00007479  00000-0  38821-3 0  9999","2 48896  97.5589 336.6325 0007596 331.6892  28.3927 15.16394230 59815","2021-059T","48896","6894.886","94.962","521.988","511.514","0"
"GENERATED VIA SPACETRACK.ORG API","18 SPCS","48896","SPACEBEE-105","PAYLOAD","U","21059T","2022-07-26 19:45:46","160352","15.16398392","0.0007538","97.5591","337.1584","329.8423","30.2374","0","999","5989","0.00029904","0.00005745","0","3522469","0 SPACEBEE-105","1 48896U 21059T   22207.82345093  .00005745  00000-0  29904-3 0  9997","2 48896  97.5591 337.1584 0007538 329.8423  30.2374 15.16398392 59895","2021-059T","48896","6894.873","94.962","521.936","511.541","0"
"GENERATED VIA SPACETRACK.ORG API","18 SPCS","48896","SPACEBEE-105","PAYLOAD","U","21059T","2022-07-26 21:20:47","482944","15.16399065","0.000753","97.5592","337.2241","329.5862","30.4932","0","999","5990","0.00029664","0.00005698","0","3522577","0 SPACEBEE-105","1 48896U 21059T   22207.88943846  .00005698  00000-0  29664-3 0  9993","2 48896  97.5592 337.2241 0007530 329.5862  30.4932 15.16399065 59905","2021-059T","48896","6894.871","94.962","521.928","511.545","0"
"GENERATED VIA SPACETRACK.ORG API","18 SPCS","48896","SPACEBEE-105","PAYLOAD","U","21059T","2022-07-27 08:25:56","654688","15.16404236","0.0007512","97.5593","337.6843","327.5937","32.4834","0","999","5997","0.0002913","0.00005595","0","3523109","0 SPACEBEE-105","1 48896U 21059T   22208.35135017  .00005595  00000-0  29130-3 0  9993","2 48896  97.5593 337.6843 0007512 327.5937  32.4834 15.16404236 59976","2021-059T","48896","6894.856","94.961","521.900","511.541","0"
"GENERATED VIA SPACETRACK.ORG API","18 SPCS","48896","SPACEBEE-105","PAYLOAD","U","21059T","2022-07-27 14:46:01","833600","15.1640705","0.000749","97.5593","337.9472","326.5215","33.5543","0","999","6001","0.00028811","0.00005534","0","3523323","0 SPACEBEE-105","1 48896U 21059T   22208.61529900  .00005534  00000-0  28811-3 0  9998","2 48896  97.5593 337.9472 0007490 326.5215  33.5543 15.16407050 60013","2021-059T","48896","6894.847","94.961","521.876","511.548","0"
"GENERATED VIA SPACETRACK.ORG API","18 SPCS","48896","SPACEBEE-105","PAYLOAD","U","21059T","2022-07-28 08:11:15","868896","15.16414803","0.0007443","97.5595","338.6704","323.6045","36.4681","0","999","6012","0.00026952","0.00005173","0","3523641","0 SPACEBEE-105","1 48896U 21059T   22209.34115589  .00005173  00000-0  26952-3 0  9996","2 48896  97.5595 338.6704 0007443 323.6045  36.4681 15.16414803 60129","2021-059T","48896","6894.824","94.961","521.820","511.557","0"
"GENERATED VIA SPACETRACK.ORG API","18 SPCS","48896","SPACEBEE-105","PAYLOAD","U","21059T","2022-07-28 19:16:24","638880","15.16419592","0.0007422","97.5596","339.1305","321.6057","38.4647","0","999","6019","0.00026735","0.00005131","0","3523837","0 SPACEBEE-105","1 48896U 21059T   22209.80306295  .00005131  00000-0  26735-3 0  9996","2 48896  97.5596 339.1305 0007422 321.6057  38.4647 15.16419592 60192","2021-059T","48896","6894.809","94.961","521.791","511.557","0"
